NORAD_CAT_ID,OBJECT_NAME,OBJECT_TYPE,EPOCH,MEAN_MOTION,ECCENTRICITY,INCLINATION,RA_OF_ASC_NODE,ARG_OF_PERICENTER,MEAN_ANOMALY,BSTAR,MEAN_MOTION_DOT,MEAN_MOTION_DDOT,TLE_LINE0,TLE_LINE1,TLE_LINE2,SEMIMAJOR_AXIS,PERIOD,APOGEE,PERIGEE,DECAYED
50163.0,STARLINK-3306,PAYLOAD,2024-03-04 22:53:50,15.08831519,0.000136,53.2173,297.466,81.7889,278.3257,-3.8589e-06,-3.49e-06,0.0,0 STARLINK-3306,1 50163U 21125H   24064.95405931 -.00000349  00000-0 -38589-5 0  9994,2 50163  53.2173 297.4660 0001360  81.7889 278.3257 15.08831519125815,6917.906,95.438,540.712,538.83,0.0
50163.0,STARLINK-3306,PAYLOAD,2024-03-05 00:29:13,15.08833835,0.0001438,53.2178,297.1683,80.5031,279.6124,1.6791e-05,-2.1e-07,0.0,0 STARLINK-3306,1 50163U 21125H   24065.02029788 -.00000021  00000-0  16791-4 0  9991,2 50163  53.2178 297.1683 0001438  80.5031 279.6124 15.08833835125825,6917.899,95.438,540.759,538.769,0.0
50163.0,STARLINK-3306,PAYLOAD,2024-03-05 21:09:14,15.08837786,0.000157,53.2172,293.3008,105.4706,254.646,-9.4811e-05,-1.797e-05,0.0,0 STARLINK-3306,1 50163U 21125H   24065.88141529 -.00001797  00000-0 -94811-4 0  9994,2 50163  53.2172 293.3008 0001570 105.4706 254.6460 15.08837786125477,6917.887,95.438,540.838,538.666,0.0
50163.0,STARLINK-3306,PAYLOAD,2024-03-05 22:44:37,15.08838451,0.0001353,53.2168,293.0032,84.6125,275.5022,1.079e-05,-1.16e-06,0.0,0 STARLINK-3306,1 50163U 21125H   24065.94765500 -.00000116  00000-0  10790-4 0  9999,2 50163  53.2168 293.0032 0001353  84.6125 275.5022 15.08838451125968,6917.885,95.438,540.686,538.814,0.0
50163.0,STARLINK-3306,PAYLOAD,2024-03-07 08:07:43,15.08844029,0.0001403,53.2165,286.7603,94.8726,265.2426,0.00017472,2.494e-05,0.0,0 STARLINK-3306,1 50163U 21125H   24067.33869486  .00002494  00000-0  17472-3 0  9995,2 50163  53.2165 286.7603 0001403  94.8726 265.2426 15.08844029126170,6917.868,95.437,540.704,538.762,0.0
50163.0,STARLINK-3306,PAYLOAD,2024-03-08 00:01:34,15.08841259,0.0001613,53.2175,283.7833,100.0294,260.088,7.728e-05,9.42e-06,0.0,0 STARLINK-3306,1 50163U 21125H   24068.00109763  .00000942  00000-0  77280-4 0  9995,2 50163  53.2175 283.7833 0001613 100.0294 260.0880 15.08841259125792,6917.877,95.437,540.857,538.626,0.0
50163.0,STARLINK-3306,PAYLOAD,2024-03-08 07:58:30,15.08842579,0.000159,53.2172,282.2963,104.4776,255.6392,0.00010426,1.372e-05,0.0,0 STARLINK-3306,1 50163U 21125H   24068.33229696  .00001372  00000-0  10426-3 0  9995,2 50163  53.2172 282.2963 0001590 104.4776 255.6392 15.08842579126328,6917.873,95.437,540.837,538.638,0.0
50163.0,STARLINK-3306,PAYLOAD,2024-03-08 20:41:35,15.08842525,0.0001676,53.218,279.9197,95.7351,264.3832,0.00010521,1.387e-05,0.0,0 STARLINK-3306,1 50163U 21125H   24068.86221709  .00001387  00000-0  10521-3 0  9992,2 50163  53.2180 279.9197 0001676  95.7351 264.3832 15.08842525126401,6917.873,95.437,540.897,538.578,0.0
50163.0,STARLINK-3306,PAYLOAD,2024-03-08 23:52:21,15.08843885,0.0001721,53.2182,279.3247,95.8843,264.2345,0.00011808,1.592e-05,0.0,0 STARLINK-3306,1 50163U 21125H   24068.99469616  .00001592  00000-0  11808-3 0  9994,2 50163  53.2182 279.3247 0001721  95.8843 264.2345 15.08843885126421,6917.869,95.437,540.924,538.543,0.0
50163.0,STARLINK-3306,PAYLOAD,2024-03-09 20:32:22,15.08846525,3.37e-05,53.2166,275.4591,66.6978,293.4049,-0.00010157,-1.904e-05,0.0,0 STARLINK-3306,1 50163U 21125H   24069.85581314 -.00001904  00000-0 -10157-3 0  9995,2 50163  53.2166 275.4591 0000337  66.6978 293.4049 15.08846525126079,6917.86,95.437,539.959,539.492,0.0
50163.0,STARLINK-3306,PAYLOAD,2024-03-09 22:07:45,15.08844301,0.0001292,53.2157,275.1626,94.3217,265.7923,9.892e-05,1.287e-05,0.0,0 STARLINK-3306,1 50163U 21125H   24069.92205538  .00001287  00000-0  98920-4 0  9991,2 50163  53.2157 275.1626 0001292  94.3217 265.7923 15.08844301126567,6917.867,95.437,540.626,538.838,0.0
50163.0,STARLINK-3306,PAYLOAD,2024-03-10 06:04:41,15.08844323,0.0001393,53.2163,273.6755,86.1864,273.9287,7.0658e-05,8.37e-06,0.0,0 STARLINK-3306,1 50163U 21125H   24070.25325467  .00000837  00000-0  70658-4 0  9991,2 50163  53.2163 273.6755 0001393  86.1864 273.9287 15.08844323126613,6917.867,95.437,540.696,538.769,0.0
50163.0,STARLINK-3306,PAYLOAD,2024-03-10 18:47:47,15.08831693,0.0001343,53.2151,271.2965,84.1552,275.9593,-6.3738e-05,-1.302e-05,0.0,0 STARLINK-3306,1 50163U 21125H   24070.78318339 -.00001302  00000-0 -63738-4 0  9990,2 50163  53.2151 271.2965 0001343  84.1552 275.9593 15.08831693126218,6917.906,95.438,540.7,538.842,0.0
50163.0,STARLINK-3306,PAYLOAD,2024-03-10 23:33:56,15.08845009,0.0001014,53.2173,270.4037,82.7153,277.3954,-0.00014708,-2.628e-05,0.0,0 STARLINK-3306,1 50163U 21125H   24070.98190000 -.00002628  00000-0 -14708-3 0  9999,2 50163  53.2173 270.4037 0001014  82.7153 277.3954 15.08845009126245,6917.865,95.437,540.432,539.029,0.0
50163.0,STARLINK-3306,PAYLOAD,2024-03-11 05:55:28,15.08849359,9e-05,53.2159,269.2154,82.1476,277.9619,-9.3955e-05,-1.783e-05,0.0,0 STARLINK-3306,1 50163U 21125H   24071.24685434 -.00001783  00000-0 -93955-4 0  9992,2 50163  53.2159 269.2154 0000900  82.1476 277.9619 15.08849359126763,6917.852,95.437,540.339,539.094,0.0
50163.0,STARLINK-3306,PAYLOAD,2024-03-13 11:58:34,15.08844406,9.4e-05,53.2159,259.1049,80.7988,279.311,-6.2596e-05,-1.284e-05,0.0,0 STARLINK-3306,1 50163U 21125H   24073.49901298 -.00001284  00000-0 -62596-4 0  9993,2 50163  53.2159 259.1049 0000940  80.7988 279.3110 15.08844406126625,6917.867,95.437,540.382,539.082,0.0
50163.0,STARLINK-3306,PAYLOAD,2024-03-13 21:30:53,15.08849632,0.0001145,53.2177,257.3211,78.1691,281.943,-2.2621e-05,-6.48e-06,0.0,0 STARLINK-3306,1 50163U 21125H   24073.89644864 -.00000648  00000-0 -22621-4 0  9998,2 50163  53.2177 257.3211 0001145  78.1691 281.9430 15.08849632127166,6917.851,95.437,540.508,538.924,0.0
50163.0,STARLINK-3306,PAYLOAD,2024-03-14 05:27:49,15.08848956,0.0001269,53.2156,255.8341,82.7611,277.3526,4.4201e-05,4.16e-06,0.0,0 STARLINK-3306,1 50163U 21125H   24074.22765170  .00000416  00000-0  44201-4 0  9999,2 50163  53.2156 255.8341 0001269  82.7611 277.3526 15.08848956127219,6917.853,95.437,540.596,538.84,0.0
50163.0,STARLINK-3306,PAYLOAD,2024-03-14 11:49:22,15.08845099,0.0001951,53.2131,254.6425,93.2348,266.8867,0.00010121,1.323e-05,0.0,0 STARLINK-3306,1 50163U 21125H   24074.49262295  .00001323  00000-0  10121-3 0  9999,2 50163  53.2131 254.6425 0001951  93.2348 266.8867 15.08845099126770,6917.865,95.437,541.079,538.38,0.0
50163.0,STARLINK-3306,PAYLOAD,2024-03-14 18:10:55,15.08834696,0.000136,53.2137,253.4544,93.0481,267.0667,-4.819e-08,-2.89e-06,0.0,0 STARLINK-3306,1 50163U 21125H   24074.75758666 -.00000289  00000-0 -48190-7 0  9993,2 50163  53.2137 253.4544 0001360  93.0481 267.0667 15.08834696126812,6917.897,95.438,540.702,538.821,0.0
50163.0,STARLINK-3306,PAYLOAD,2024-03-14 21:21:41,15.08838152,0.0001563,53.2147,252.8585,94.9658,265.1513,4.8653e-05,4.86e-06,0.0,0 STARLINK-3306,1 50163U 21125H   24074.89006586  .00000486  00000-0  48653-4 0  9993,2 50163  53.2147 252.8585 0001563  94.9658 265.1513 15.08838152127318,6917.886,95.438,540.832,538.67,0.0
50163.0,STARLINK-3306,PAYLOAD,2024-03-15 11:40:09,15.08843211,0.0001445,53.2147,250.1823,96.2304,263.8853,0.00012173,1.65e-05,0.0,0 STARLINK-3306,1 50163U 21125H   24075.48622359  .00001650  00000-0  12173-3 0  9992,2 50163  53.2147 250.1823 0001445  96.2304 263.8853 15.08843211126926,6917.871,95.437,540.735,538.736,0.0
50163.0,STARLINK-3306,PAYLOAD,2024-03-15 21:12:28,15.08847244,0.0001106,53.2151,248.3977,99.4877,260.624,0.0001013,1.325e-05,0.0,0 STARLINK-3306,1 50163U 21125H   24075.88366051  .00001325  00000-0  10130-3 0  9990,2 50163  53.2151 248.3977 0001106  99.4877 260.6240 15.08847244127469,6917.858,95.437,540.488,538.958,0.0
50163.0,STARLINK-3306,PAYLOAD,2024-03-16 14:41:43,15.08837909,0.0001471,53.2148,245.1254,104.5437,255.5718,0.00014245,1.98e-05,0.0,0 STARLINK-3306,1 50163U 21125H   24076.61230692  .00001980  00000-0  14245-3 0  9991,2 50163  53.2148 245.1254 0001471 104.5437 255.5718 15.08837909127575,6917.887,95.438,540.769,538.734,0.0
50163.0,STARLINK-3306,PAYLOAD,2024-03-16 21:03:15,15.08837366,0.0001282,53.2151,243.9365,96.9956,263.1182,6.9746e-05,8.22e-06,0.0,0 STARLINK-3306,1 50163U 21125H   24076.87726754  .00000822  00000-0  69746-4 0  9999,2 50163  53.2151 243.9365 0001282  96.9956 263.1182 15.08837366127137,6917.888,95.438,540.64,538.867,0.0
50163.0,STARLINK-3306,PAYLOAD,2024-03-17 14:32:30,15.08839833,0.0001303,53.2158,240.6653,108.2839,251.8295,4.7934e-05,4.75e-06,0.0,0 STARLINK-3306,1 50163U 21125H   24077.60590689  .00000475  00000-0  47934-4 0  9996,2 50163  53.2158 240.6653 0001303 108.2839 251.8295 15.08839833127724,6917.881,95.438,540.647,538.844,0.0
50163.0,STARLINK-3306,PAYLOAD,2024-03-17 20:54:02,15.08842979,0.0001342,53.2162,239.4756,109.7668,250.3469,6.3848e-05,7.28e-06,0.0,0 STARLINK-3306,1 50163U 21125H   24077.87086392  .00000728  00000-0  63848-4 0  9999,2 50163  53.2162 239.4756 0001342 109.7668 250.3469 15.08842979127764,6917.871,95.437,540.665,538.808,0.0
50163.0,STARLINK-3306,PAYLOAD,2024-03-18 11:12:31,15.08836562,0.000134,53.2165,236.799,108.9332,251.1805,9.6817e-05,1.253e-05,0.0,0 STARLINK-3306,1 50163U 21125H   24078.46702763  .00001253  00000-0  96817-4 0  9998,2 50163  53.2165 236.7990 0001340 108.9332 251.1805 15.08836562127375,6917.891,95.438,540.683,538.829,0.0
50163.0,STARLINK-3306,PAYLOAD,2024-03-19 11:03:18,15.08841823,0.0001294,53.2163,232.3386,106.9352,253.1782,8.2391e-05,1.024e-05,0.0,0 STARLINK-3306,1 50163U 21125H   24079.46062736  .00001024  00000-0  82391-4 0  9996,2 50163  53.2163 232.3386 0001294 106.9352 253.1782 15.08841823128005,6917.875,95.437,540.635,538.845,0.0
50163.0,STARLINK-3306,PAYLOAD,2024-03-20 14:04:52,15.0883363,0.0001445,53.2175,227.2914,87.2324,272.8833,4.3334e-05,4.02e-06,0.0,0 STARLINK-3306,1 50163U 21125H   24080.58671819  .00000402  00000-0  43334-4 0  9992,2 50163  53.2175 227.2914 0001445  87.2324 272.8833 15.08833630128176,6917.9,95.438,540.764,538.765,0.0
